COSMOS 2550             
1 48865U 21056A   25299.90701742  .00000540  00000+0  22249-4 0  9993
2 48865  67.1426  85.6496 0008345 270.2155  89.8043 15.33828720242941
CZ-2C R/B               
1 52794U 22058K   25299.65009363  .00027576  00000+0  54895-3 0  9993
2 52794  50.1912 283.1077 0051148   1.9956 358.1205 15.45240323189342
GSLV R/B                
1 54149U 22138AN  25299.83020206  .00004886  00000+0  43477-3 0  9990
2 54149  87.3853 211.1691 0019067 280.3611  79.5470 14.95737434163913
XRISM                   
1 57800U 23137A   25299.70254678  .00006549  00000+0  39168-3 0  9995
2 57800  31.0027  69.0686 0008210 131.1073 229.0274 15.09599781117512
ACS3                    
1 59588U 24077B   25299.61713363  .00007937  00000+0  73068-2 0  9993
2 59588  97.3464 265.6384 0027085  27.6071 332.6520 13.82658903 75625
