CCSDS_OMM_VERS = 2.0
CREATION_DATE  = 
ORIGINATOR     = 

OBJECT_NAME    = COSMOS 2550
OBJECT_ID      = 2021-056A
CENTER_NAME    = EARTH
REF_FRAME      = TEME
TIME_SYSTEM    = UTC
MEAN_ELEMENT_THEORY = SGP/SGP4

EPOCH          = 2025-10-26T21:46:06.305088
MEAN_MOTION    = 15.33828720
ECCENTRICITY   = .0008345
INCLINATION    = 67.1426
RA_OF_ASC_NODE = 85.6496
ARG_OF_PERICENTER = 270.2155
MEAN_ANOMALY   = 89.8043

EPHEMERIS_TYPE = 0
CLASSIFICATION_TYPE = U
NORAD_CAT_ID   = 48865
ELEMENT_SET_NO = 999
REV_AT_EPOCH   = 24294
BSTAR          = .22249E-4
MEAN_MOTION_DOT = .54E-5
MEAN_MOTION_DDOT = 0

CCSDS_OMM_VERS = 2.0
CREATION_DATE  = 
ORIGINATOR     = 

OBJECT_NAME    = CZ-2C R/B
OBJECT_ID      = 2022-058K
CENTER_NAME    = EARTH
REF_FRAME      = TEME
TIME_SYSTEM    = UTC
MEAN_ELEMENT_THEORY = SGP/SGP4

EPOCH          = 2025-10-26T15:36:08.089632
MEAN_MOTION    = 15.45240323
ECCENTRICITY   = .0051148
INCLINATION    = 50.1912
RA_OF_ASC_NODE = 283.1077
ARG_OF_PERICENTER = 1.9956
MEAN_ANOMALY   = 358.1205

EPHEMERIS_TYPE = 0
CLASSIFICATION_TYPE = U
NORAD_CAT_ID   = 52794
ELEMENT_SET_NO = 999
REV_AT_EPOCH   = 18934
BSTAR          = .54895E-3
MEAN_MOTION_DOT = .27576E-3
MEAN_MOTION_DDOT = 0

CCSDS_OMM_VERS = 2.0
CREATION_DATE  = 
ORIGINATOR     = 

OBJECT_NAME    = GSLV R/B
OBJECT_ID      = 2022-138AN
CENTER_NAME    = EARTH
REF_FRAME      = TEME
TIME_SYSTEM    = UTC
MEAN_ELEMENT_THEORY = SGP/SGP4

EPOCH          = 2025-10-26T19:55:29.457984
MEAN_MOTION    = 14.95737434
ECCENTRICITY   = .0019067
INCLINATION    = 87.3853
RA_OF_ASC_NODE = 211.1691
ARG_OF_PERICENTER = 280.3611
MEAN_ANOMALY   = 79.5470

EPHEMERIS_TYPE = 0
CLASSIFICATION_TYPE = U
NORAD_CAT_ID   = 54149
ELEMENT_SET_NO = 999
REV_AT_EPOCH   = 16391
BSTAR          = .43477E-3
MEAN_MOTION_DOT = .4886E-4
MEAN_MOTION_DDOT = 0

CCSDS_OMM_VERS = 2.0
CREATION_DATE  = 
ORIGINATOR     = 

OBJECT_NAME    = XRISM
OBJECT_ID      = 2023-137A
CENTER_NAME    = EARTH
REF_FRAME      = TEME
TIME_SYSTEM    = UTC
MEAN_ELEMENT_THEORY = SGP/SGP4

EPOCH          = 2025-10-26T16:51:40.041792
MEAN_MOTION    = 15.09599781
ECCENTRICITY   = .000821
INCLINATION    = 31.0027
RA_OF_ASC_NODE = 69.0686
ARG_OF_PERICENTER = 131.1073
MEAN_ANOMALY   = 229.0274

EPHEMERIS_TYPE = 0
CLASSIFICATION_TYPE = U
NORAD_CAT_ID   = 57800
ELEMENT_SET_NO = 999
REV_AT_EPOCH   = 11751
BSTAR          = .39168E-3
MEAN_MOTION_DOT = .6549E-4
MEAN_MOTION_DDOT = 0

CCSDS_OMM_VERS = 2.0
CREATION_DATE  = 
ORIGINATOR     = 

OBJECT_NAME    = ACS3
OBJECT_ID      = 2024-077B
CENTER_NAME    = EARTH
REF_FRAME      = TEME
TIME_SYSTEM    = UTC
MEAN_ELEMENT_THEORY = SGP/SGP4

EPOCH          = 2025-10-26T14:48:40.345632
MEAN_MOTION    = 13.82658903
ECCENTRICITY   = .0027085
INCLINATION    = 97.3464
RA_OF_ASC_NODE = 265.6384
ARG_OF_PERICENTER = 27.6071
MEAN_ANOMALY   = 332.6520

EPHEMERIS_TYPE = 0
CLASSIFICATION_TYPE = U
NORAD_CAT_ID   = 59588
ELEMENT_SET_NO = 999
REV_AT_EPOCH   = 7562
BSTAR          = .73068E-2
MEAN_MOTION_DOT = .7937E-4
MEAN_MOTION_DDOT = 0

